Satellite: AO-07
Catalog number: 07530
Epoch time:      15077.51321216
Element set:     999
Inclination:      101.5114 deg
RA of node:       055.6845 deg
Eccentricity:    0.0012284
Arg of perigee:   118.6487 deg
Mean anomaly:     352.0515 deg
Mean motion:   12.53612688 rev/day
Decay rate:       -3.8e-07 rev/day^2
Epoch rev:           84589
Checksum:              308

Satellite: FO-29
Catalog number: 24278
Epoch time:      15077.19736380
Element set:     999
Inclination:      098.5307 deg
RA of node:       058.3369 deg
Eccentricity:    0.0349589
Arg of perigee:   306.8756 deg
Mean anomaly:     114.1904 deg
Mean motion:   13.53047377 rev/day
Decay rate:        2.0e-07 rev/day^2
Epoch rev:           91772
Checksum:              356

Satellite: SO-33
Catalog number: 25509
Epoch time:      15077.18580778
Element set:     999
Inclination:      031.4333 deg
RA of node:       047.4972 deg
Eccentricity:    0.0348153
Arg of perigee:   355.5403 deg
Mean anomaly:     004.2161 deg
Mean motion:   14.29905555 rev/day
Decay rate:      1.200e-05 rev/day^2
Epoch rev:           85638
Checksum:              318

Satellite: RS-22
Catalog number: 27939
Epoch time:      15077.63999038
Element set:     999
Inclination:      097.8297 deg
RA of node:       243.6211 deg
Eccentricity:    0.0012708
Arg of perigee:   319.1420 deg
Mean anomaly:     040.8845 deg
Mean motion:   14.65869717 rev/day
Decay rate:      1.341e-05 rev/day^2
Epoch rev:           61292
Checksum:              348

Satellite: HO-68
Catalog number: 36122
Epoch time:      15077.56839070
Element set:     999
Inclination:      100.2077 deg
RA of node:       125.5626 deg
Eccentricity:    0.0007421
Arg of perigee:   331.2471 deg
Mean anomaly:     028.8242 deg
Mean motion:   13.16324711 rev/day
Decay rate:       -6.0e-07 rev/day^2
Epoch rev:           25253
Checksum:              282

Satellite: AO-73
Catalog number: 39444
Epoch time:      15076.82563967
Element set:     999
Inclination:      097.7406 deg
RA of node:       142.9142 deg
Eccentricity:    0.0061670
Arg of perigee:   074.1667 deg
Mean anomaly:     286.6332 deg
Mean motion:   14.79809423 rev/day
Decay rate:      3.015e-05 rev/day^2
Epoch rev:            6990
Checksum:              352

Satellite: EO-79
Catalog number: 40025
Epoch time:      15077.77536143
Element set:     999
Inclination:      097.9619 deg
RA of node:       337.8940 deg
Eccentricity:    0.0014163
Arg of perigee:   117.0251 deg
Mean anomaly:     243.2513 deg
Mean motion:   14.86713971 rev/day
Decay rate:      4.006e-05 rev/day^2
Epoch rev:            4036
Checksum:              316

/EX
SB KEPS @ AMSAT  $ORB15077.D
Orbital Elements  15077.MICROS

HR AMSAT ORBITAL ELEMENTS FOR THE MICROSATS
FROM WA5QGD FORT WORTH,TX March 18, 2015
BID: ORB15077.D
TO ALL RADIO AMATEURS BT

Satellite: UO-11
Catalog number: 14781
Epoch time:      15077.17524496
Element set:     999
Inclination:      097.8130 deg
RA of node:       136.4551 deg
Eccentricity:    0.0008877
Arg of perigee:   017.7794 deg
Mean anomaly:     342.3728 deg
Mean motion:   14.82226942 rev/day
Decay rate:      1.179e-05 rev/day^2
Epoch rev:           66854
Checksum:              351

Satellite: AO-16
Catalog number: 20439
Epoch time:      15077.81967135
Element set:     999
Inclination:      098.5344 deg
RA of node:       015.3745 deg
Eccentricity:    0.0012013
Arg of perigee:   069.7627 deg
Mean anomaly:     306.9845 deg
Mean motion:   14.32505652 rev/day
Decay rate:       2.46e-06 rev/day^2
Epoch rev:           31380
Checksum:              319

Satellite: LO-19
Catalog number: 20442
Epoch time:      15077.41526321
Element set:     999
Inclination:      098.5054 deg
RA of node:       014.8072 deg
Eccentricity:    0.0012890
Arg of perigee:   059.8994 deg
Mean anomaly:     300.3466 deg
Mean motion:   14.32700334 rev/day
Decay rate:       2.45e-06 rev/day^2
Epoch rev:           31394
Checksum:              300

Satellite: AO-27
Catalog number: 22825
Epoch time:      15076.95285035
Element set:     999
Inclination:      098.6990 deg
RA of node:       027.0885 deg
Eccentricity:    0.0007742
Arg of perigee:   209.6554 deg
Mean anomaly:     194.9660 deg
Mean motion:   14.29848326 rev/day
Decay rate:       1.86e-06 rev/day^2
Epoch rev:           11990
Checksum:              360

Satellite: IO-26
Catalog number: 22826
Epoch time:      15077.02088386
Element set:     999
Inclination:      098.6932 deg
RA of node:       027.3355 deg
Eccentricity:    0.0008399
Arg of perigee:   201.1799 deg
Mean anomaly:     158.9036 deg
Mean motion:   14.30161848 rev/day
Decay rate:       2.11e-06 rev/day^2
Epoch rev:           12005
Checksum:              320

Satellite: GO-32
Catalog number: 25397
Epoch time:      15077.44404981
Element set:     999
Inclination:      098.5099 deg
RA of node:       030.7810 deg
Eccentricity:    0.0000746
Arg of perigee:   166.4919 deg
Mean anomaly:     306.0533 deg
Mean motion:   14.23525815 rev/day
Decay rate:       1.15e-06 rev/day^2
Epoch rev:           86688
Checksum:              333

Satellite: NO-44
Catalog number: 26931
Epoch time:      15077.17741915
Element set:     999
Inclination:      067.0513 deg
RA of node:       051.8464 deg
Eccentricity:    0.0006542
Arg of perigee:   263.9922 deg
Mean anomaly:     096.0434 deg
Mean motion:   14.30274228 rev/day
Decay rate:       2.23e-06 rev/day^2
Epoch rev:           70278
Checksum:              311

Satellite: SO-50
Catalog number: 27607
Epoch time:      15076.55344825
Element set:     999
Inclination:      064.5543 deg
RA of node:       118.5589 deg
Eccentricity:    0.0076456
Arg of perigee:   306.3804 deg
Mean anomaly:     053.0260 deg
Mean motion:   14.74525767 rev/day
Decay rate:      1.120e-05 rev/day^2
Epoch rev:           65777
Checksum:              334

Satellite: CO-55
Catalog number: 27844
Epoch time:      15076.84843390
Element set:     999
Inclination:      098.6977 deg
RA of node:       086.6746 deg
Eccentricity:    0.0009317
Arg of perigee:   198.4481 deg
Mean anomaly:     218.8453 deg
Mean motion:   14.21737755 rev/day
Decay rate:       3.52e-06 rev/day^2
Epoch rev:           60746
Checksum:              374

Satellite: CO-57
Catalog number: 27848
Epoch time:      15077.05213689
Element set:     999
Inclination:      098.7073 deg
RA of node:       086.7349 deg
Eccentricity:    0.0009124
Arg of perigee:   205.2916 deg
Mean anomaly:     187.9015 deg
Mean motion:   14.21394106 rev/day
Decay rate:       3.50e-06 rev/day^2
Epoch rev:           60740
Checksum:              331

