DECODE 2-LINE ELSETS WITH THE FOLLOWING KEY:
1 AAAAAU 00  0  0 BBBBB.BBBBBBBB  .CCCCCCCC  00000-0  00000-0 0  DDDZ
2 AAAAA EEE.EEEE FFF.FFFF GGGGGGG HHH.HHHH III.IIII JJ.JJJJJJJJKKKKKZ
KEY: A-CATALOGNUM B-EPOCHTIME C-DECAY D-ELSETNUM E-INCLINATION F-RAAN
G-ECCENTRICITY H-ARGPERIGEE I-MNANOM J-MNMOTION K-ORBITNUM Z-CHECKSUM

TO ALL RADIO AMATEURS BT

AO-07
1 07530U 74089B   15077.51321216 -.00000038  00000-0  34494-4 0  9994
2 07530 101.5114 055.6845 0012284 118.6487 352.0515 12.53612688845892
FO-29
1 24278U 96046B   15077.19736380  .00000020  00000-0  59172-4 0  9995
2 24278 098.5307 058.3369 0349589 306.8756 114.1904 13.53047377917720
SO-33
1 25509U 98061B   15077.18580778  .00001200  00000-0  22461-3 0  9990
2 25509 031.4333 047.4972 0348153 355.5403 004.2161 14.29905555856381
RS-22
1 27939U 03042A   15077.63999038  .00001341  00000-0  25353-3 0  9996
2 27939 097.8297 243.6211 0012708 319.1420 040.8845 14.65869717612924
HO-68
1 36122U 09072B   15077.56839070 -.00000060  00000-0 -43517-4 0  9992
2 36122 100.2077 125.5626 0007421 331.2471 028.8242 13.16324711252537
AO-73
1 39444U 13066AE  15076.82563967  .00003015  00000-0  39442-3 0  9999
2 39444 097.7406 142.9142 0061670 074.1667 286.6332 14.79809423 69904
EO-79
1 40025U 14033R   15077.77536143  .00004006  00000-0  45588-3 0  9991
2 40025 097.9619 337.8940 0014163 117.0251 243.2513 14.86713971 40360
UO-11
1 14781U 84021B   15077.17524496  .00001179  00000-0  15422-3 0  9999
2 14781 097.8130 136.4551 0008877 017.7794 342.3728 14.82226942668549
AO-16
1 20439U 90005D   15077.81967135  .00000246  00000-0  10672-3 0  9993
2 20439 098.5344 015.3745 0012013 069.7627 306.9845 14.32505652313805
LO-19
1 20442U 90005G   15077.41526321  .00000245  00000-0  10584-3 0  9992
2 20442 098.5054 014.8072 0012890 059.8994 300.3466 14.32700334313940
AO-27
1 22825U 93061C   15076.95285035  .00000186  00000-0  89683-4 0  9997
2 22825 098.6990 027.0885 0007742 209.6554 194.9660 14.29848326119905
IO-26
1 22826U 93061D   15077.02088386  .00000211  00000-0  98633-4 0  9991
2 22826 098.6932 027.3355 0008399 201.1799 158.9036 14.30161848120058
GO-32
1 25397U 98043D   15077.44404981  .00000115  00000-0  69120-4 0  9993
2 25397 098.5099 030.7810 0000746 166.4919 306.0533 14.23525815866882
NO-44
1 26931U 01043C   15077.17741915  .00000223  00000-0  11784-3 0  9995
2 26931 067.0513 051.8464 0006542 263.9922 096.0434 14.30274228702786
SO-50
1 27607U 02058C   15076.55344825  .00001120  00000-0  18117-3 0  9997
2 27607 064.5543 118.5589 0076456 306.3804 053.0260 14.74525767657776
CO-55
1 27844U 03031E   15076.84843390  .00000352  00000-0  18016-3 0  9999
2 27844 098.6977 086.6746 0009317 198.4481 218.8453 14.21737755607461
CO-57
1 27848U 03031J   15077.05213689  .00000350  00000-0  18045-3 0  9999
2 27848 098.7073 086.7349 0009124 205.2916 187.9015 14.21394106607402
